CYGFM02                 
1 41886U 16078C   24246.91229886  .00021718  00000+0  71478-3 0  9990
2 41886  34.9475 153.6235 0012508 208.1247 151.8794 15.30520268428164
CYGFM01                 
1 41887U 16078D   24246.89118005  .00020246  00000+0  69889-3 0  9996
2 41887  34.9490 172.3696 0011626 186.1270 173.9305 15.29000954428023
CYGFM08                 
1 41888U 16078E   24246.86081771  .00021777  00000+0  72849-3 0  9993
2 41888  34.9506 160.0129 0013248 207.9746 152.0258 15.29986634428088
CYGFM07                 
1 41890U 16078G   24246.88649731  .00020460  00000+0  67795-3 0  9996
2 41890  34.9517 151.0702 0010444 223.2831 136.7065 15.30336155428085
CYGFM03                 
1 41891U 16078H   24246.86105021  .00022094  00000+0  73452-3 0  9996
2 41891  34.9454 152.4909 0010043 207.4102 152.6085 15.30220911428216
FENGYUN 3D              
1 43010U 17072A   24246.91881129  .00000499  00000+0  25887-3 0  9996
2 43010  98.9173 202.0547 0002552 101.4763 258.6699 14.19411202352441
NOAA 20 (JPSS-1)        
1 43013U 17073A   24246.87455474  .00000393  00000+0  20714-3 0  9992
2 43013  98.7082 183.5006 0001795  42.5591 317.5724 14.19575452351920
GOES 17                 
1 43226U 18022A   24246.63538990 -.00000102  00000+0  00000+0 0  9993
2 43226   0.0447 307.7171 0002045 256.4532 262.1267  1.00272276 23882
FENGYUN 2H              
1 43491U 18050A   24246.96907727 -.00000141  00000+0  00000+0 0  9995
2 43491   1.3406  86.6242 0001218 103.3651 220.9346  1.00274820 22897
METOP-C                 
1 43689U 18087A   24246.92090211  .00000552  00000+0  27232-3 0  9996
2 43689  98.7170 305.2641 0001335 179.0891 181.0289 14.21461615302164
GEO-KOMPSAT-2A          
1 43823U 18100A   24246.89702198 -.00000354  00000+0  00000+0 0  9993
2 43823   0.0140  84.7661 0001646  34.6344 314.3086  1.00270441 21085
METEOR-M2 2             
1 44387U 19038A   24246.93782823  .00000728  00000+0  33694-3 0  9991
2 44387  98.8350 216.4971 0002442  92.8927 267.2531 14.23953102268451
ARKTIKA-M 1             
1 47719U 21016A   24246.01863364  .00000022  00000+0  00000+0 0  9999
2 47719  63.1326 142.8957 6969170 268.5737  17.7776  2.00595654 25685
FENGYUN 3E              
1 49008U 21062A   24246.93898631  .00000170  00000+0  10076-3 0  9991
2 49008  98.7365 247.1872 0002121 136.0683 224.0662 14.19780422164028
GOES 18                 
1 51850U 22021A   24246.11462517  .00000084  00000+0  00000+0 0  9991
2 51850   0.0184 267.9128 0000381 299.5051  38.5939  1.00273383    40
NOAA 21 (JPSS-2)        
1 54234U 22150A   24246.91058956  .00000451  00000+0  23456-3 0  9991
2 54234  98.7536 183.9012 0000484  54.0715 306.0506 14.19565575 94001
METEOSAT-12 (MTG-I1)    
1 54743U 22170C   24246.95188228 -.00000016  00000+0  00000+0 0  9992
2 54743   0.5900  45.2981 0001963  94.1947 185.4336  1.00272678  6437
TIANMU-1 03             
1 55973U 23039A   24246.89308762  .00020917  00000+0  84939-3 0  9991
2 55973  97.4764  37.1635 0004021 263.7079  96.3701 15.24602646 80688
TIANMU-1 04             
1 55974U 23039B   24246.93734593  .00019704  00000+0  79761-3 0  9991
2 55974  97.4686  36.6997 0005070 259.5497 100.5169 15.24717717 80681
TIANMU-1 05             
1 55975U 23039C   24246.92580454  .00019715  00000+0  80091-3 0  9996
2 55975  97.4734  37.0542 0003614 286.5536  73.5305 15.24603179 80679
TIANMU-1 06             
1 55976U 23039D   24246.89970838  .00020143  00000+0  81275-3 0  9994
2 55976  97.4748  37.1821 0004149 284.0096  76.0680 15.24824368 80673
METEOR-M2 3             
1 57166U 23091A   24246.90319124  .00000166  00000+0  91628-4 0  9999
2 57166  98.7063 300.8552 0002877 261.6169  98.4683 14.23920003 61681
TIANMU-1 07             
1 57399U 23101A   24246.89064662  .00013601  00000+0  66014-3 0  9999
2 57399  97.3567 301.9010 0003251 274.4686  85.6177 15.18589109 62216
TIANMU-1 08             
1 57400U 23101B   24246.92541387  .00013368  00000+0  64868-3 0  9995
2 57400  97.3553 301.7980 0005484 282.5139  77.5482 15.18593288 62213
TIANMU-1 09             
1 57401U 23101C   24246.90834785  .00014522  00000+0  70373-3 0  9992
2 57401  97.3509 301.5781 0005928 276.7536  83.3024 15.18619302 62214
TIANMU-1 10             
1 57402U 23101D   24246.94135918  .00013318  00000+0  64582-3 0  9996
2 57402  97.3590 301.9652 0007918 275.4252  84.6079 15.18602953 62216
FENGYUN 3F              
1 57490U 23111A   24246.88909906  .00000377  00000+0  19838-3 0  9998
2 57490  98.7641 315.2848 0000869 144.9853 215.1381 14.19869687 56292
ARKTIKA-M 2             
1 58584U 23198A   24243.25826574  .00000048  00000+0  00000+0 0  9997
2 58584  63.2507 226.9354 6954290 269.7440  17.3855  2.00598854  5154
TIANMU-1 11             
1 58645U 23205A   24246.95649470  .00012756  00000+0  65836-3 0  9993
2 58645  97.4003 270.0876 0012893 129.6792 230.5580 15.16384871 38291
TIANMU-1 12             
1 58646U 23205B   24246.90377062  .00011909  00000+0  61648-3 0  9990
2 58646  97.3988 269.9577 0011008 124.0105 236.2175 15.16314858 38271
TIANMU-1 13             
1 58647U 23205C   24246.87327679  .00012831  00000+0  66223-3 0  9995
2 58647  97.4021 269.9456 0011631 109.1840 251.0653 15.16395351 38261
TIANMU-1 14             
1 58648U 23205D   24246.92305324  .00011970  00000+0  61795-3 0  9997
2 58648  97.3946 269.7834 0012397 111.8529 248.4024 15.16396273 38276
TIANMU-1 19             
1 58660U 23208A   24246.85862306  .00015655  00000+0  80691-3 0  9994
2 58660  97.4161 357.4021 0008700  94.6596 265.5630 15.16423175 37935
TIANMU-1 20             
1 58661U 23208B   24246.88739036  .00015356  00000+0  76744-3 0  9993
2 58661  97.4089 357.4239 0010780 105.2557 254.9869 15.17495912 37950
TIANMU-1 21             
1 58662U 23208C   24246.89773183  .00016762  00000+0  81287-3 0  9996
2 58662  97.4129 357.8426 0010403 105.1840 255.0546 15.18531545 37974
TIANMU-1 22             
1 58663U 23208D   24246.87711411  .00015047  00000+0  77188-3 0  9991
2 58663  97.4146 357.4772 0006124 115.6879 244.4988 15.16618307 37946
TIANMU-1 15             
1 58700U 24004A   24246.92171168  .00014338  00000+0  73876-3 0  9995
2 58700  97.4636  66.6638 0010441 138.8009 221.4014 15.16443250 36544
TIANMU-1 16             
1 58701U 24004B   24246.90272585  .00014155  00000+0  72856-3 0  9993
2 58701  97.4566  66.4553 0010412 143.7008 216.4934 15.16484290 36547
TIANMU-1 17             
1 58702U 24004C   24246.88903952  .00013594  00000+0  70085-3 0  9998
2 58702  97.4607  66.6117 0008457 137.3094 222.8797 15.16450379 36530
TIANMU-1 18             
1 58703U 24004D   24246.87141002  .00013041  00000+0  67276-3 0  9993
2 58703  97.4621  66.6843 0007762 128.3812 231.8119 15.16444324 36530
INSAT-3DS               
1 58990U 24033A   24246.96477453 -.00000166  00000+0  00000+0 0  9998
2 58990   0.0828 274.9576 0001708 254.2024 242.8374  1.00271844 40524
METEOR-M2 4             
1 59051U 24039A   24246.94327540  .00000240  00000+0  12762-3 0  9996
2 59051  98.6052 206.9495 0005864 258.2497 101.8023 14.22259325 26544
GOES 19                 
1 60133U 24119A   24246.62481892 -.00000194  00000+0  00000+0 0  9991
2 60133   0.0252 199.7346 0002239 254.6732  23.3086  1.00273775   428
STARLINK-32285          
1 60355U 24138A   24246.91667824 -.01012769  00000+0 -19451-1 0  9996
2 60355  53.1594   5.5635 0001064  78.3874  66.8188 15.50052032  5926
STARLINK-32278          
1 60356U 24138B   24246.91667824 -.01713953  00000+0 -33052-1 0  9993
2 60356  53.1601   5.2894 0001286  67.3325 210.5887 15.50535944  5927
STARLINK-32286          
1 60357U 24138C   24246.91667824  .00265957  00000+0  16845-2 0  9999
2 60357  53.1573   5.0317 0003657   2.8953  47.6399 15.75244239  5927
STARLINK-32287          
1 60358U 24138D   24246.91667824 -.01085356  00000+0 -20957-1 0  9994
2 60358  53.1595   5.5595 0001303  53.8735  93.2401 15.50091570  5927
STARLINK-32290          
1 60359U 24138E   24246.91667824 -.01304368  00000+0 -25166-1 0  9999
2 60359  53.1593   5.5514 0001415  75.4942  75.4362 15.50174627  5867
STARLINK-32275          
1 60360U 24138F   24246.91667824 -.01013573  00000+0 -19468-1 0  9994
2 60360  53.1594   5.5474 0001030  79.5602  73.3119 15.50052135  5929
STARLINK-32227          
1 60361U 24138G   24246.91667824 -.01347570  00000+0 -25889-1 0  9996
2 60361  53.1600   5.2812 0001414  68.8362 212.9466 15.50391284  5939
STARLINK-32256          
1 60362U 24138H   24246.91667824 -.01370442  00000+0 -26369-1 0  9995
2 60362  53.1600   5.2854 0001311  72.3044 207.5599 15.50400879  5926
STARLINK-32267          
1 60363U 24138J   24246.91667824 -.00998006  00000+0 -19141-1 0  9997
2 60363  53.1594   5.5432 0001139  55.3331  99.4553 15.50051434  5929
STARLINK-32270          
1 60364U 24138K   24246.91667824 -.01017349  00000+0 -19547-1 0  9991
2 60364  53.1595   5.5394 0001032  72.5852  84.1197 15.50052772  5818
STARLINK-32188          
1 60365U 24138L   24246.91667824 -.01014880  00000+0 -19496-1 0  9992
2 60365  53.1596   5.5354 0001147  74.7178  83.9041 15.50050557  5924
STARLINK-32230          
1 60366U 24138M   24246.91667824 -.01012587  00000+0 -19448-1 0  9992
2 60366  53.1596   5.5311 0001185  77.8139  82.7248 15.50049953  5925
STARLINK-32243          
1 60367U 24138N   24246.91667824 -.00999283  00000+0 -19168-1 0  9998
2 60367  53.1595   5.5273 0000976  54.3069 108.1476 15.50052293  5928
STARLINK-32271          
1 60368U 24138P   24246.91667824 -.00998813  00000+0 -19158-1 0  9996
2 60368  53.1596   5.5231 0001075  53.8394 110.5319 15.50051790  5924
STARLINK-32266          
1 60369U 24138Q   24246.91667824  .00143259  00000+0  15152-2 0  9992
2 60369  53.1594   5.3713 0002060  38.4624 202.2866 15.63220156  5920
